{"type": "FeatureCollection", "features": [ {"type": "Feature", "properties": {"norad_id": 32171, "name": "FENGYUN 1C DEB", "group": "fengyun-1c-debris", "lat": 1.4763826284829433, "lon": -99.81233044220426, "alt_km": 765.1982437428278, "timestamp": "2025-12-25T22:42:17.297209+00:00", "meta": {"OBJECT_NAME": "FENGYUN 1C DEB", "OBJECT_ID": "1999-025CTR", "EPOCH": "2025-12-19T23:42:54.324864", "MEAN_MOTION": 13.42626137, "ECCENTRICITY": 0.04889608, "INCLINATION": 102.8047, "RA_OF_ASC_NODE": 252.9563, "ARG_OF_PERICENTER": 350.4446, "MEAN_ANOMALY": 24.1541, "EPHEMERIS_TYPE": 0, "CLASSIFICATION_TYPE": "U", "NORAD_CAT_ID": 32171, "ELEMENT_SET_NO": 999, "REV_AT_EPOCH": 60713, "BSTAR": 0.0031070162, "MEAN_MOTION_DOT": 3.53e-05, "MEAN_MOTION_DDOT": 0}, "tle": {"line1": "1 32171U 99025CTR 25353.98812876  .00003530  00000+0  31070-2 0  9999", "line2": "2 32171 102.8047 252.9563 0488960 350.4446  24.1541 13.42626137607130"}}, "geometry": {"type": "Point", "coordinates": [-99.81233044220426, 1.4763826284829433]}}, {"type": "Feature", "properties": {"norad_id": 32174, "name": "FENGYUN 1C DEB", "group": "fengyun-1c-debris", "lat": -16.445087171990906, "lon": -120.87617021113294, "alt_km": 730.2645973495692, "timestamp": "2025-12-25T22:42:17.297219+00:00", "meta": {"OBJECT_NAME": "FENGYUN 1C DEB", "OBJECT_ID": "1999-025CTU", "EPOCH": "2025-12-24T22:03:55.021248", "MEAN_MOTION": 14.1793552, "ECCENTRICITY": 0.0151034, "INCLINATION": 98.5999, "RA_OF_ASC_NODE": 60.6893, "ARG_OF_PERICENTER": 210.8031, "MEAN_ANOMALY": 148.4216, "EPHEMERIS_TYPE": 0, "CLASSIFICATION_TYPE": "U", "NORAD_CAT_ID": 32174, "ELEMENT_SET_NO": 999, "REV_AT_EPOCH": 64278, "BSTAR": 0.00027956, "MEAN_MOTION_DOT": 5.97e-06, "MEAN_MOTION_DDOT": 0}, "tle": {"line1": "1 32174U 99025CTU 25358.91938682  .00000597  00000+0  27956-3 0  9993", "line2": "2 32174  98.5999  60.6893 0151034 210.8031 148.4216 14.17935520642789"}}, "geometry": {"type": "Point", "coordinates": [-120.87617021113294, -16.445087171990906]}}, {"type": "Feature", "properties": {"norad_id": 32175, "name": "FENGYUN 1C DEB", "group": "fengyun-1c-debris", "lat": 69.66287059440944, "lon": -36.839170492129625, "alt_km": 994.4496416764041, "timestamp": "2025-12-25T22:42:17.297229+00:00", "meta": {"OBJECT_NAME": "FENGYUN 1C DEB", "OBJECT_ID": "1999-025CTV", "EPOCH": "2025-12-23T04:56:33.925344", "MEAN_MOTION": 13.94880841, "ECCENTRICITY": 0.01517458, "INCLINATION": 98.8236, "RA_OF_ASC_NODE": 345.3153, "ARG_OF_PERICENTER": 294.464, "MEAN_ANOMALY": 64.0759, "EPHEMERIS_TYPE": 0, "CLASSIFICATION_TYPE": "U", "NORAD_CAT_ID": 32175, "ELEMENT_SET_NO": 999, "REV_AT_EPOCH": 59986, "BSTAR": 0.0025272856, "MEAN_MOTION_DOT": 3.694e-05, "MEAN_MOTION_DDOT": 0}, "tle": {"line1": "1 32175U 99025CTV 25357.20594821  .00003694  00000+0  25273-2 0  9998", "line2": "2 32175  98.8236 345.3153 0151745 294.4640  64.0759 13.94880841599866"}}, "geometry": {"type": "Point", "coordinates": [-36.839170492129625, 69.66287059440944]}}, {"type": "Feature", "properties": {"norad_id": 32177, "name": "FENGYUN 1C DEB", "group": "fengyun-1c-debris", "lat": -60.73385515119549, "lon": 173.83973452206615, "alt_km": 731.8978649311302, "timestamp": "2025-12-25T22:42:17.297239+00:00", "meta": {"OBJECT_NAME": "FENGYUN 1C DEB", "OBJECT_ID": "1999-025CTX", "EPOCH": "2025-12-24T20:51:42.424128", "MEAN_MOTION": 14.56358491, "ECCENTRICITY": 0.0051413, "INCLINATION": 99.0441, "RA_OF_ASC_NODE": 9.1854, "ARG_OF_PERICENTER": 8.5544, "MEAN_ANOMALY": 351.6516, "EPHEMERIS_TYPE": 0, "CLASSIFICATION_TYPE": "U", "NORAD_CAT_ID": 32177, "ELEMENT_SET_NO": 999, "REV_AT_EPOCH": 71215, "BSTAR": 0.0014896, "MEAN_MOTION_DOT": 6.674e-05, "MEAN_MOTION_DDOT": 0}, "tle": {"line1": "1 32177U 99025CTX 25358.86924102  .00006674  00000+0  14896-2 0  9992", "line2": "2 32177  99.0441   9.1854 0051413   8.5544 351.6516 14.56358491712155"}}, "geometry": {"type": "Point", "coordinates": [173.83973452206615, -60.73385515119549]}}, {"type": "Feature", "properties": {"norad_id": 32178, "name": "FENGYUN 1C DEB", "group": "fengyun-1c-debris", "lat": -41.681916678016385, "lon": 12.92578891579078, "alt_km": 762.8430093338129, "timestamp": "2025-12-25T22:42:17.297265+00:00", "meta": {"OBJECT_NAME": "FENGYUN 1C DEB", "OBJECT_ID": "1999-025CTY", "EPOCH": "2025-12-23T18:35:31.360128", "MEAN_MOTION": 14.23044864, "ECCENTRICITY": 0.00944146, "INCLINATION": 100.3037, "RA_OF_ASC_NODE": 1.0671, "ARG_OF_PERICENTER": 293.0216, "MEAN_ANOMALY": 66.1021, "EPHEMERIS_TYPE": 0, "CLASSIFICATION_TYPE": "U", "NORAD_CAT_ID": 32178, "ELEMENT_SET_NO": 999, "REV_AT_EPOCH": 64160, "BSTAR": 0.0011295374, "MEAN_MOTION_DOT": 2.608e-05, "MEAN_MOTION_DDOT": 0}, "tle": {"line1": "1 32178U 99025CTY 25357.77466852  .00002608  00000+0  11295-2 0  9998", "line2": "2 32178 100.3037   1.0671 0094414 293.0216  66.1021 14.23044864641606"}}, "geometry": {"type": "Point", "coordinates": [12.92578891579078, -41.681916678016385]}}, {"type": "Feature", "properties": {"norad_id": 32179, "name": "FENGYUN 1C DEB", "group": "fengyun-1c-debris", "lat": 46.602329117889944, "lon": -121.93871168548705, "alt_km": 777.5265478846286, "timestamp": "2025-12-25T22:42:17.297276+00:00", "meta": {"OBJECT_NAME": "FENGYUN 1C DEB", "OBJECT_ID": "1999-025CTZ", "EPOCH": "2025-12-24T22:43:07.178304", "MEAN_MOTION": 14.0369456, "ECCENTRICITY": 0.0145903, "INCLINATION": 98.9083, "RA_OF_ASC_NODE": 47.5341, "ARG_OF_PERICENTER": 155.9615, "MEAN_ANOMALY": 329.6, "EPHEMERIS_TYPE": 0, "CLASSIFICATION_TYPE": "U", "NORAD_CAT_ID": 32179, "ELEMENT_SET_NO": 999, "REV_AT_EPOCH": 65899, "BSTAR": 0.00039781, "MEAN_MOTION_DOT": 6.45e-06, "MEAN_MOTION_DDOT": 0}, "tle": {"line1": "1 32179U 99025CTZ 25358.94661086  .00000645  00000+0  39781-3 0  9995", "line2": "2 32179  98.9083  47.5341 0145903 155.9615 329.6000 14.03694560658994"}}, "geometry": {"type": "Point", "coordinates": [-121.93871168548705, 46.602329117889944]}}, {"type": "Feature", "properties": {"norad_id": 32180, "name": "FENGYUN 1C DEB", "group": "fengyun-1c-debris", "lat": 58.52998287445583, "lon": -123.68473349716673, "alt_km": 892.3432408141043, "timestamp": "2025-12-25T22:42:17.297288+00:00", "meta": {"OBJECT_NAME": "FENGYUN 1C DEB", "OBJECT_ID": "1999-025CUA", "EPOCH": "2025-12-22T23:28:34.256928", "MEAN_MOTION": 13.8233046, "ECCENTRICITY": 0.0136707, "INCLINATION": 99.5844, "RA_OF_ASC_NODE": 37.2738, "ARG_OF_PERICENTER": 183.4887, "MEAN_ANOMALY": 296.4475, "EPHEMERIS_TYPE": 0, "CLASSIFICATION_TYPE": "U", "NORAD_CAT_ID": 32180, "ELEMENT_SET_NO": 999, "REV_AT_EPOCH": 94409, "BSTAR": 0.00010963048, "MEAN_MOTION_DOT": 8.1e-07, "MEAN_MOTION_DDOT": 0}, "tle": {"line1": "1 32180U 99025CUA 25356.97817427  .00000081  00000+0  10963-3 0  9995", "line2": "2 32180  99.5844  37.2738 0136707 183.4887 296.4475 13.82330460944091"}}, "geometry": {"type": "Point", "coordinates": [-123.68473349716673, 58.52998287445583]}}, {"type": "Feature", "properties": {"norad_id": 32181, "name": "FENGYUN 1C DEB", "group": "fengyun-1c-debris", "lat": -49.35930950039512, "lon": 116.71981641205798, "alt_km": 717.8359166626124, "timestamp": "2025-12-25T22:42:17.297298+00:00", "meta": {"OBJECT_NAME": "FENGYUN 1C DEB", "OBJECT_ID": "1999-025CUB", "EPOCH": "2025-12-24T01:34:25.782816", "MEAN_MOTION": 14.56119063, "ECCENTRICITY": 0.00732404, "INCLINATION": 99.4729, "RA_OF_ASC_NODE": 103.3702, "ARG_OF_PERICENTER": 51.7083, "MEAN_ANOMALY": 127.0572, "EPHEMERIS_TYPE": 0, "CLASSIFICATION_TYPE": "U", "NORAD_CAT_ID": 32181, "ELEMENT_SET_NO": 999, "REV_AT_EPOCH": 96885, "BSTAR": 0.00098979645, "MEAN_MOTION_DOT": 4.469e-05, "MEAN_MOTION_DDOT": 0}, "tle": {"line1": "1 32181U 99025CUB 25358.06557619  .00004469  00000+0  98980-3 0  9991", "line2": "2 32181  99.4729 103.3702 0073240  51.7083 127.0572 14.56119063968859"}}, "geometry": {"type": "Point", "coordinates": [116.71981641205798, -49.35930950039512]}}, {"type": "Feature", "properties": {"norad_id": 32183, "name": "FENGYUN 1C DEB", "group": "fengyun-1c-debris", "lat": 76.30069729375252, "lon": -90.28887241193286, "alt_km": 844.7633140473954, "timestamp": "2025-12-25T22:42:17.297314+00:00", "meta": {"OBJECT_NAME": "FENGYUN 1C DEB", "OBJECT_ID": "1999-025CUD", "EPOCH": "2025-12-24T20:41:19.245120", "MEAN_MOTION": 14.10113391, "ECCENTRICITY": 0.0042177, "INCLINATION": 98.7119, "RA_OF_ASC_NODE": 49.6834, "ARG_OF_PERICENTER": 26.6334, "MEAN_ANOMALY": 333.6991, "EPHEMERIS_TYPE": 0, "CLASSIFICATION_TYPE": "U", "NORAD_CAT_ID": 32183, "ELEMENT_SET_NO": 999, "REV_AT_EPOCH": 72935, "BSTAR": 0.00069974, "MEAN_MOTION_DOT": 1.205e-05, "MEAN_MOTION_DDOT": 0}, "tle": {"line1": "1 32183U 99025CUD 25358.86202830  .00001205  00000+0  69974-3 0  9999", "line2": "2 32183  98.7119  49.6834 0042177  26.6334 333.6991 14.10113391729357"}}, "geometry": {"type": "Point", "coordinates": [-90.28887241193286, 76.30069729375252]}}, {"type": "Feature", "properties": {"norad_id": 32184, "name": "FENGYUN 1C DEB", "group": "fengyun-1c-debris", "lat": -29.79266534576487, "lon": -43.86141225220607, "alt_km": 435.4988871700589, "timestamp": "2025-12-25T22:42:17.297324+00:00", "meta": {"OBJECT_NAME": "FENGYUN 1C DEB", "OBJECT_ID": "1999-025CUE", "EPOCH": "2025-12-24T08:30:19.606176", "MEAN_MOTION": 15.45603031, "ECCENTRICITY": 0.0068517, "INCLINATION": 98.1191, "RA_OF_ASC_NODE": 139.0466, "ARG_OF_PERICENTER": 306.9817, "MEAN_ANOMALY": 52.517, "EPHEMERIS_TYPE": 0, "CLASSIFICATION_TYPE": "U", "NORAD_CAT_ID": 32184, "ELEMENT_SET_NO": 999, "REV_AT_EPOCH": 98583, "BSTAR": 0.0017036702, "MEAN_MOTION_DOT": 0.00090457, "MEAN_MOTION_DDOT": 0}, "tle": {"line1": "1 32184U 99025CUE 25358.35439359  .00090457  00000+0  17037-2 0  9991", "line2": "2 32184  98.1191 139.0466 0068517 306.9817  52.5170 15.45603031985830"}}, "geometry": {"type": "Point", "coordinates": [-43.86141225220607, -29.79266534576487]}}]}